WEILAI 1R               
1 44884U 19093F   26181.85674270  .00003259  00000+0  26106-3 0  9993
2 44884  97.7877 271.7643 0017225 355.0917   5.0134 15.00755073354471
FLORIPASAT-1            
1 44885U 19093G   26181.79828031  .00005030  00000+0  36782-3 0  9993
2 44885  97.7942 276.1278 0012035  30.2512 329.9406 15.04019219354698
SHUNTIAN                
1 44886U 19093H   26181.86028059  .00001741  00000+0  16348-3 0  9995
2 44886  97.8017 269.9510 0012181  27.5891 332.5973 14.95218694354228
ELEKTRO-L 3             
1 44903U 19095A   26181.53026391 -.00000086  00000+0  00000+0 0  9994
2 44903   0.2899  82.0247 0001527   7.1184  96.3280  1.00272398 23846
GONETS-M 14             
1 44905U 19096A   26181.89389054 -.00000039  00000+0 -35166-3 0  9998
2 44905  82.5238  76.1438 0014071 119.2987 240.9500 12.42869880295386
GONETS-M 15             
1 44906U 19096B   26181.84278122 -.00000017  00000+0 -19653-3 0  9996
2 44906  82.5258  76.6392 0015535 141.8929 218.3252 12.42871510295348
GONETS-M 16             
1 44907U 19096C   26181.86876793 -.00000038  00000+0 -34760-3 0  9996
2 44907  82.5203  75.5689 0010335 182.7100 177.3926 12.42891602295339
RS-44 & BREEZE-KM R/B   
1 44909U 19096E   26181.45233901  .00000008  00000+0 -18766-4 0  9996
2 44909  82.5224 330.8897 0218503 113.2889 249.1374 12.79748923304043
JILIN-1 KUANFU 01       
1 45016U 20003A   26181.79723520  .00003076  00000+0  18895-3 0  9993
2 45016  97.5029 255.4871 0008174 251.8009 108.2331 15.10798251357380
XINGYUN-2 01            
1 45602U 20028A   26181.90889032  .00001953  00000+0  11785-3 0  9998
2 45602  97.4869 174.0375 0009943 147.0212 213.1640 15.11862614336915
XINGYUN-2 02            
1 45603U 20028B   26181.82375414  .00002312  00000+0  13985-3 0  9998
2 45603  97.5063 187.5752 0009693 218.5223 141.5316 15.11589149336899
HAIYANG-1D              
1 45721U 20036A   26181.85666046  .00000000  00000+0  15248-4 0  9992
2 45721  98.4559 123.2397 0003939  99.5039 260.6591 14.34177289316934
M2 PATHFINDER           
1 45727U 20037E   26181.47988063  .00003059  00000+0  22134-3 0  9991
2 45727  97.8140  12.8603 0012730 107.3668 252.8951 15.04732911327490
GAOFEN DUOMO (GFDM)     
1 45856U 20042A   26181.89316138  .00000265  00000+0  44692-4 0  9994
2 45856  97.7744 241.2805 0011861  35.2451 324.9542 14.76896882323036
ZIYUAN 3-03 (ZY 3-03)   
1 45939U 20051A   26181.86541809  .00002702  00000+0  12361-3 0  9993
2 45939  97.2832 249.1478 0002125 269.6817  90.4175 15.21357381329429
NEMO-HD                 
1 46277U 20061F   26181.86292231  .00011738  00000+0  25188-3 0  9992
2 46277  97.1914 243.6793 0001603  74.0550 286.0876 15.44866694324092
NAPA-1                  
1 46320U 20061BA  26181.87598588  .00088001  00000+0  73214-3 0  9996
2 46320  97.2458 256.5214 0001756 183.3540 176.7711 15.69863106323889
JILIN-1 GAOFEN 3E       
1 46457U 20065D   26181.78226181  .00072125  00000+0  71948-3 0  9990
2 46457  97.2227 234.7198 0012228 116.1947 244.0572 15.65332859321888
JILIN-1 GAOFEN 3F       
1 46458U 20065E   26181.83193889  .00070418  00000+0  78872-3 0  9991
2 46458  97.2184 232.0387 0013676 104.2734 256.0045 15.62359749321839
JILIN-1 GAOFEN 3G       
1 46459U 20065F   26181.82988559  .00134182  00000+0  93830-3 0  9997
2 46459  97.2250 239.0784 0005237   1.6697 358.4584 15.73851394322082
JILIN-1 GAOFEN 3H       
1 46460U 20065G   26181.83369177  .00101981  00000+0  84710-3 0  9997
2 46460  97.2195 235.3231 0004182 261.4365  98.6424 15.69848964322028
HAIYANG-2C              
1 46469U 20066A   26181.82947501  .00000025  00000+0  96624-4 0  9994
2 46469  65.9946 181.3175 0008355 237.7027 122.3232 13.83377154291385
HJ-2A                   
1 46478U 20067A   26181.85429676  .00000819  00000+0  12462-3 0  9994
2 46478  97.8832 259.9032 0002922 202.1957 157.9127 14.76533120310276
HJ-2B                   
1 46479U 20067B   26181.82302301  .00000145  00000+0  27987-4 0  9998
2 46479  97.8898 260.9057 0001575  98.5924 261.5465 14.76573226310270
GONETS-M 17             
1 46486U 20068A   26181.81354951 -.00000038  00000+0 -34777-3 0  9991
2 46486  82.4992 339.0238 0022479   8.4070 351.7382 12.42873467260859
GONETS-M 18             
1 46487U 20068B   26181.85769938  .00000060  00000+0  36260-3 0  9993
2 46487  82.4946 338.1090 0019691   5.0438 355.0837 12.42874491260847
GONETS-M 19             
1 46488U 20068C   26181.83292503  .00000049  00000+0  27866-3 0  9990
2 46488  82.4971 338.5774 0013718  21.4893 338.6760 12.42892601260946
