OBJECT_NAME,OBJECT_ID,EPOCH,MEAN_MOTION,ECCENTRICITY,INCLINATION,RA_OF_ASC_NODE,ARG_OF_PERICENTER,MEAN_ANOMALY,EPHEMERIS_TYPE,CLASSIFICATION_TYPE,NORAD_CAT_ID,ELEMENT_SET_NO,REV_AT_EPOCH,BSTAR,MEAN_MOTION_DOT,MEAN_MOTION_DDOT
WEILAI 1R,2019-093F,2026-06-30T20:33:42.569280,15.00755073,.0017225,97.7877,271.7643,355.0917,5.0134,0,U,44884,999,35447,.26106E-3,.3259E-4,0
FLORIPASAT-1,2019-093G,2026-06-30T19:09:31.418784,15.04019219,.0012035,97.7942,276.1278,30.2512,329.9406,0,U,44885,999,35469,.36782E-3,.503E-4,0
SHUNTIAN,2019-093H,2026-06-30T20:38:48.242976,14.95218694,.0012181,97.8017,269.9510,27.5891,332.5973,0,U,44886,999,35422,.16348E-3,.1741E-4,0
ELEKTRO-L 3,2019-095A,2026-06-30T12:43:34.801824,1.00272398,.00015271,0.2899,82.0247,7.1184,96.3280,0,U,44903,999,2384,0,-.86E-6,0
GONETS-M 14,2019-096A,2026-06-30T21:27:12.142656,12.42869880,.0014071,82.5238,76.1438,119.2987,240.9500,0,U,44905,999,29538,-.35166E-3,-.39E-6,0
GONETS-M 15,2019-096B,2026-06-30T20:13:36.297408,12.42871510,.0015535,82.5258,76.6392,141.8929,218.3252,0,U,44906,999,29534,-.19653E-3,-.17E-6,0
GONETS-M 16,2019-096C,2026-06-30T20:51:01.549152,12.42891602,.0010335,82.5203,75.5689,182.7100,177.3926,0,U,44907,999,29533,-.3476E-3,-.38E-6,0
RS-44 & BREEZE-KM R/B,2019-096E,2026-06-30T10:51:22.090464,12.79748923,.02185039,82.5224,330.8897,113.2889,249.1374,0,U,44909,999,30404,-.18766128E-4,.8E-7,0
JILIN-1 KUANFU 01,2020-003A,2026-06-30T19:08:01.121280,15.10798251,.0008174,97.5029,255.4871,251.8009,108.2331,0,U,45016,999,35738,.18895E-3,.3076E-4,0
XINGYUN-2 01,2020-028A,2026-06-30T21:48:48.123648,15.11862614,.0009943,97.4869,174.0375,147.0212,213.1640,0,U,45602,999,33691,.11785E-3,.1953E-4,0
XINGYUN-2 02,2020-028B,2026-06-30T19:46:12.357696,15.11589149,.0009693,97.5063,187.5752,218.5223,141.5316,0,U,45603,999,33689,.13985E-3,.2312E-4,0
HAIYANG-1D,2020-036A,2026-06-30T20:33:35.463744,14.34177289,.0003939,98.4559,123.2397,99.5039,260.6591,0,U,45721,999,31693,.15248E-4,0,0
M2 PATHFINDER,2020-037E,2026-06-30T11:31:01.686432,15.04732911,.00127307,97.8140,12.8603,107.3668,252.8951,0,U,45727,999,32749,.22134261E-3,.3059E-4,0
GAOFEN DUOMO (GFDM),2020-042A,2026-06-30T21:26:09.143232,14.76896882,.0011861,97.7744,241.2805,35.2451,324.9542,0,U,45856,999,32303,.44692E-4,.265E-5,0
ZIYUAN 3-03 (ZY 3-03),2020-051A,2026-06-30T20:46:12.122976,15.21357381,.0002125,97.2832,249.1478,269.6817,90.4175,0,U,45939,999,32942,.12361E-3,.2702E-4,0
NEMO-HD,2020-061F,2026-06-30T20:42:36.487584,15.44866694,.0001603,97.1914,243.6793,74.0550,286.0876,0,U,46277,999,32409,.25188E-3,.11738E-3,0
NAPA-1,2020-061BA,2026-06-30T21:01:25.180032,15.69863106,.0001756,97.2458,256.5214,183.3540,176.7711,0,U,46320,999,32388,.73214E-3,.88001E-3,0
JILIN-1 GAOFEN 3E,2020-065D,2026-06-30T18:46:27.420384,15.65332859,.0012228,97.2227,234.7198,116.1947,244.0572,0,U,46457,999,32188,.71948E-3,.72125E-3,0
JILIN-1 GAOFEN 3F,2020-065E,2026-06-30T19:57:59.520096,15.62359749,.0013676,97.2184,232.0387,104.2734,256.0045,0,U,46458,999,32183,.78872E-3,.70418E-3,0
JILIN-1 GAOFEN 3G,2020-065F,2026-06-30T19:55:02.114976,15.73851394,.0005237,97.2250,239.0784,1.6697,358.4584,0,U,46459,999,32208,.9383E-3,.134182E-2,0
JILIN-1 GAOFEN 3H,2020-065G,2026-06-30T20:00:30.968928,15.69848964,.0004182,97.2195,235.3231,261.4365,98.6424,0,U,46460,999,32202,.8471E-3,.101981E-2,0
HAIYANG-2C,2020-066A,2026-06-30T19:54:26.640864,13.83377154,.0008355,65.9946,181.3175,237.7027,122.3232,0,U,46469,999,29138,.96624E-4,.25E-6,0
HJ-2A,2020-067A,2026-06-30T20:30:11.240064,14.76533120,.0002922,97.8832,259.9032,202.1957,157.9127,0,U,46478,999,31027,.12462E-3,.819E-5,0
HJ-2B,2020-067B,2026-06-30T19:45:09.188064,14.76573226,.0001575,97.8898,260.9057,98.5924,261.5465,0,U,46479,999,31027,.27987E-4,.145E-5,0
GONETS-M 17,2020-068A,2026-06-30T19:31:30.677664,12.42873467,.0022479,82.4992,339.0238,8.4070,351.7382,0,U,46486,999,26085,-.34777E-3,-.38E-6,0
GONETS-M 18,2020-068B,2026-06-30T20:35:05.226432,12.42874491,.0019691,82.4946,338.1090,5.0438,355.0837,0,U,46487,999,26084,.3626E-3,.6E-6,0
GONETS-M 19,2020-068C,2026-06-30T19:59:24.722592,12.42892601,.0013718,82.4971,338.5774,21.4893,338.6760,0,U,46488,999,26094,.27866E-3,.49E-6,0
